mdb_id,address,street,postalcode,city,lat,lon
2314,,,,,,
2315,,,,,,
2316,,,,,,
2317,,,,,,
2318,"Westliche Karl-Friedrich-Str. 28, 75172 Pforzheim",Westliche Karl-Friedrich-Str. 28,75172,Pforzheim,48.891825600000004,8.70015012038029
2319,"Im Kreuzkampe 1, 30655 Hannover",Im Kreuzkampe 1,30655,Hannover,52.4011651,9.7834366
2019,,,,,,
2320,,,,,,
2321,"Rathausgasse 5, 94481 Grafenau",Rathausgasse 5,94481,Grafenau,48.8558553,13.3977789
2322,,,,,,
1769,"Langenhof 2, 26160 Bad Zwischenahn",Langenhof 2,26160,Bad Zwischenahn,53.182088,7.997872661484103
1769,"Unterm Berg 20, 26123 Oldenburg",Unterm Berg 20,26123,Oldenburg,53.148544,8.233907174549918
2020,"Osianderstraße 2, 73230 Kirchheim/Teck",Osianderstraße 2,73230,Kirchheim/Teck,,
2021,"Hattersheimer Straße 46, 65719 Hofheim am Taunus",Hattersheimer Straße 46,65719,Hofheim am Taunus,50.0819424,8.454493499999987
2022,,,,,,
1771,"Gartenstr. 27, 24103 Kiel",Gartenstr. 27,24103,Kiel,54.3267835,10.131042
2323,"Fritz-Erler-Str. 2, 50374 Erftstadt",Fritz-Erler-Str. 2,50374,Erftstadt,50.81326975,6.814544572772237
2323,"Hochstr. 34, 53879 Euskirchen",Hochstr. 34,53879,Euskirchen,50.6599047,6.786711
1383,"Helene-Lange-Straße 1, 20144 Hamburg",Helene-Lange-Straße 1,20144,Hamburg,53.5741541,9.9768221
2324,"Strelitzer Str. 37, 17235 Neustrelitz",Strelitzer Str. 37,17235,Neustrelitz,53.3597675,13.0676398
2324,"Domstraße 4, 18273 Güstrow",Domstraße 4,18273,Güstrow,53.79229795,12.175378818675675
1642,,,,,,
2325,"Braunschweiger Straße 71, 12055 Berlin",Braunschweiger Straße 71,12055,Berlin,52.4705804,13.4441408
1773,,,,,,
1653,"Ziegetsdorfer Straße 109, 93051 Regensburg",Ziegetsdorfer Straße 109,93051,Regensburg,49.00884445,12.057047499999996
2326,,,,,,
2327,,,,,,
2328,"Rochlitzer Str. 73, 09648 Mittweida",Rochlitzer Str. 73,09648,Mittweida,50.9860592,12.974356938225593
2023,"Luitpoldstraße 53, 96052 Bamberg",Luitpoldstraße 53,96052,Bamberg,49.9003841,10.89743186299073
2023,"Paradeplatz 19, 91301 Forchheim",Paradeplatz 19,91301,Forchheim,49.718447350000005,11.060370140803148
1774,"Schillerplatz 10, 73033 Göppingen",Schillerplatz 10,73033,Göppingen,48.7044851,9.6499974
1229,"Obere Marktstraße 1, 97688 Bad Kissingen",Obere Marktstraße 1,97688,Bad Kissingen,50.2000825,10.0766237
2329,"Marienstraße 3, 83607 Holzkirchen",Marienstraße 3,83607,Holzkirchen,47.8781516,11.7016917
1775,,,,,,
1776,,,,,,
2330,,,,,,
2331,,,,,,
2288,"Niederste Straße 15, 57439 Attendorn",Niederste Straße 15,57439,Attendorn,51.126215349999995,7.905693106534173
2288,"Breitenfeld 1B, 58507 Lüdenscheid",Breitenfeld 1B,58507,Lüdenscheid,51.22701455,7.615984390547958
1385,,,,,,
2599,,,,,,
1297,,,,,,
973,,,,,,
2593,,,,,,
1607,"Krummacherstraße 33, 47051 Duisburg",Krummacherstraße 33,47051,Duisburg,51.42811835,6.762685171513258
2025,"Neustadt 455, 84028 Landshut",Neustadt 455,84028,Landshut,48.5364138,12.1538987
2332,,,,,,
2026,,,,,,
2029,"Dresdener Str. 10, 10999 Berlin",Dresdener Str. 10,10999,Berlin,52.50049045,13.417581726728688
2029,"Schreinerstr. 6, 10247 Berlin",Schreinerstr. 6,10247,Berlin,52.5175553,13.4635705
2335,"Burchardstraße 19, 20095 Hamburg",Burchardstraße 19,20095,Hamburg,53.5492417,10.0001844
2333,,,,,,
2334,,,,,,
2030,"Bawinkeler Str. 3, 49838 Langen",Bawinkeler Str. 3,49838,Langen,52.5409283,7.4658523
2030,"Osnabrücker Str. 38, 49170 Hagen",Osnabrücker Str. 38,49170,Hagen,52.1973659,7.9818221
2441,,,,,,
2336,,,,,,
2337,"Paulinenstraße 39, 32756 Detmold",Paulinenstraße 39,32756,Detmold,51.9370337,8.874636
2337,"Mittelstraße 3, 32657 Lemgo",Mittelstraße 3,32657,Lemgo,52.0279454,8.905879542100763
2338,,,,,,
2032,,,,,,
2033,"Hamburger Straße 29, 23795 Bad Segeberg",Hamburger Straße 29,23795,Bad Segeberg,53.93857895,10.301112786533547
1558,"Friedrichstraße 140a, 42551 Velbert",Friedrichstraße 140a,42551,Velbert,51.341152050000005,7.042796376369822
2036,,,,,,
1566,"Uhlandstraße 21, 71638 Ludwigsburg",Uhlandstraße 21,71638,Ludwigsburg,48.8955032,9.1836971
1656,"Severinswall 37, 50678 Köln",Severinswall 37,50678,Köln,50.92292305,6.9623593769053755
1656,"Im Spürkergarten 38, 50374 Erftstadt-Liblar",Im Spürkergarten 38,50374,Erftstadt-Liblar,50.807324949999995,6.82532763897121
2339,"Schlägertwiete 6, 21335 Lüneburg",Schlägertwiete 6,21335,Lüneburg,53.2465068,10.404085
2339,"Bergstraße 33, 29439 Lüchow (Wendland)",Bergstraße 33,29439,Lüchow (Wendland),52.9677361,11.1605
2037,"Feldkircher Straße 40a, 56567 Neuwied",Feldkircher Straße 40a,56567,Neuwied,50.4516852,7.4240727
2037,"Wilhelmstr. 53, 57610 Altenkirchen",Wilhelmstr. 53,57610,Altenkirchen,50.68624105,7.6425442017512975
2340,,,,,,
2341,,,,,,
2038,,,,,,
2342,,,,,,
2313,,,,,,
2343,"August-Bebel-Straße 40, 23936 Grevesmühlen",August-Bebel-Straße 40,23936,Grevesmühlen,53.8632591,11.1835291
1394,"Michael-Henkel-Straße 4-6, 36043 Fulda",Michael-Henkel-Straße 4-6,36043,Fulda,50.5452287,9.6965109
1394,"Vogelsbergstraße 40, 36341 Lauterbach",Vogelsbergstraße 40,36341,Lauterbach,50.63292715,9.396350742554167
2039,"Pfarrstr. 2, 69168 Wiesloch",Pfarrstr. 2,69168,Wiesloch,49.29449635,8.698032730835603
2040,"Gymnasiumstraße 9, 76829 Landau in der Pfalz",Gymnasiumstraße 9,76829,Landau in der Pfalz,49.197954249999995,8.1114338
2344,,,,,,
1648,,,,,,
2041,,,,,,
1785,"Bergheimer Str. 147, 69115 Heidelberg",Bergheimer Str. 147,69115,Heidelberg,49.40693445,8.676445852643116
1175,"Spenerweg 8, 35394 Gießen",Spenerweg 8,35394,Gießen,50.5917122,8.704089699999997
1175,"Altenburger Straße 16a, 36304 Alsfeld",Altenburger Straße 16a,36304,Alsfeld,50.7482786,9.269511
2043,"Daimler Str. 34, 71404 Korb",Daimler Str. 34,71404,Korb,48.83481835,9.367220557534306
2044,"Löninger Str. 1, 49661 Cloppenburg",Löninger Str. 1,49661,Cloppenburg,52.84277285,8.037382903567675
2044,"Große Straße 90, 49377 Vechta",Große Straße 90,49377,Vechta,52.730087,8.2889207
2045,"Jakobstraße 46, 90402 Nürnberg",Jakobstraße 46,90402,Nürnberg,49.4491648,11.0712983
1619,"Fischmarkt 12b, 38820 Halberstadt",Fischmarkt 12b,38820,Halberstadt,51.8955443,11.0518588
1619,"Vorderbreite 19, 06449 Aschersleben",Vorderbreite 19,06449,Aschersleben,51.756142600000004,11.457671509424781
2345,,,,,,
2046,"Silcherstraße 20, 73430 Aalen",Silcherstraße 20,73430,Aalen,48.8370898,10.0798032
1659,,,,,,
2047,"Fröbelstraße 5, 51643 Gummersbach",Fröbelstraße 5,51643,Gummersbach,51.0283523,7.56628076851112
2346,,,,,,
1701,"Rosenstraße 39, 88212 Ravensburg",Rosenstraße 39,88212,Ravensburg,47.7839961,9.6128878
2347,,,,,,
2299,"Stadtplatz 55, 84453 Mühldorf am Inn",Stadtplatz 55,84453,Mühldorf am Inn,48.2410335,12.5254865
2048,,,,,,
2049,"Siebleber Straße 2, 99867 Gotha",Siebleber Straße 2,99867,Gotha,50.9478235,10.704748341134044
2589,"Kirchstraße 5, 08280 Aue",Kirchstraße 5,08280,Aue,50.586189950000005,12.703673513173957
2348,,,,,,
1661,,,,,,
2051,,,,,,
2053,,,,,,
2349,,,,,,
1787,,,,,,
2054,,,,,,
2055,"Gablenberger Hauptstrasse 33, 70186 Stuttgart",Gablenberger Hauptstrasse 33,70186,Stuttgart,48.778806149999994,9.207356240747238
2056,"Muskauer Straße 73, 02943 Weisswasser",Muskauer Straße 73,02943,Weisswasser,51.5054483,14.64196605
1264,"Hauptkanal links 42, 26871 Papenburg",Hauptkanal links 42,26871,Papenburg,53.081971800000005,7.391664506412263
1264,"Ledastraße 11, 26789 Leer",Ledastraße 11,26789,Leer,53.2297817,7.4592535
2008,,,,,,
2057,,,,,,
2058,,,,,,
2059,"Großbeerenstraße 46, 12107 Berlin",Großbeerenstraße 46,12107,Berlin,52.4352355,13.3778659
2350,,,,,,
2305,,,,,,
1788,"Roonstraße 1, 59229 Ahlen",Roonstraße 1,59229,Ahlen,51.766198,7.8979158
2060,"Hinrich-Fehrs-Str. 2, 25813 Husum",Hinrich-Fehrs-Str. 2,25813,Husum,54.4832982,9.055587551982878
2060,"Neue Anlage 17, 25746 Heide",Neue Anlage 17,25746,Heide,54.1931796,9.093842514190738
1398,,,,,,
1917,,,,,,
993,,,,,,
2351,"Lipschitzallee 70, 12353 Berlin",Lipschitzallee 70,12353,Berlin,52.4251284,13.4635289
2352,,,,,,
1789,"Große Märkerstr. 6, 06108 Halle (Saale)",Große Märkerstr. 6,06108,Halle (Saale),51.4812148,11.9713998
2353,,,,,,
2354,"Südwall 38, 47798 Krefeld",Südwall 38,47798,Krefeld,51.3276131,6.5647417
2354,"Ostring 3, 47441 Moers",Ostring 3,47441,Moers,51.451551699999996,6.63048748970588
2355,"Altmarkt 7, 08280 Aue",Altmarkt 7,08280,Aue,50.586421,12.702720432311093
2063,"Bahnhofstraße 26, 34369 Hofgeismar",Bahnhofstraße 26,34369,Hofgeismar,51.4945123,9.389168645066178
2063,"Briloner Landstraße 27, 34497 Korbach",Briloner Landstraße 27,34497,Korbach,51.277352500000006,8.866312104230772
1791,"Spargasse 10, 97688 Bad Kissingen",Spargasse 10,97688,Bad Kissingen,50.2000111,10.0777661
1791,"Marktplatz 6, 97437 Haßfurt",Marktplatz 6,97437,Haßfurt,50.031894300000005,10.506625227456649
1646,,,,,,
1288,,,,,,
2356,"Kirchenplatz 2, 35390 Gießen",Kirchenplatz 2,35390,Gießen,50.5874489,8.675169
2356,"Alsfelder Str. 6, 35305 Grünberg",Alsfelder Str. 6,35305,Grünberg,50.591772500000005,8.960785134104047
2064,"Bernauer Str. 71, 16515 Oranienburg",Bernauer Str. 71,16515,Oranienburg,52.7576036,13.2509754
1792,,,,,,
1793,"Ebertplatz 23, 50668 Köln",Ebertplatz 23,50668,Köln,50.9511104,6.958645
2357,,,,,,
2358,,,,,,
2066,"Brookdamm 40, 27777 Ganderkesee",Brookdamm 40,27777,Ganderkesee,53.03480555,8.555789279135954
1794,"Heilig-Kreuz-Straße 24, 86152 Augsburg",Heilig-Kreuz-Straße 24,86152,Augsburg,48.372322049999994,10.891311299878975
1750,"Blendstatt 3, 74523 Schwäbisch Hall",Blendstatt 3,74523,Schwäbisch Hall,49.114549,9.736895050000001
2359,,,,,,
2360,"Lenbachplatz 16, 86529 Schrobenhausen",Lenbachplatz 16,86529,Schrobenhausen,48.561468000000005,11.264903577496192
2361,"Kugelbühlstraße 9, 91154 Roth",Kugelbühlstraße 9,91154,Roth,49.2457795,11.09193055
2068,,,,,,
2362,,,,,,
2309,"Heimstraße 7, 89073 Ulm",Heimstraße 7,89073,Ulm,48.4018327,9.9946396
2363,"Stadtberg 26, 89312 Günzburg",Stadtberg 26,89312,Günzburg,48.4544136,10.273863
2364,,,,,,
2365,,,,,,
2070,"Güterstraße 2, 94469 Deggendorf",Güterstraße 2,94469,Deggendorf,48.837666150000004,12.949317959647981
2070,"Krankenhausstraße 3, 94078 Freyung",Krankenhausstraße 3,94078,Freyung,48.8062118,13.54599054311117
1406,"Hadergasse 11, 97421 Schweinfurt",Hadergasse 11,97421,Schweinfurt,49.990033100000005,10.25142122966652
1406,"Heiligkreuzstrasse 4, 96450 Coburg",Heiligkreuzstrasse 4,96450,Coburg,50.26330745,10.966372845188284
1406,"Ostuzzistraße 1, 94032 Passau",Ostuzzistraße 1,94032,Passau,48.57117435,13.44485586698554
2071,"Arndtstraße 6-8, 33602 Bielefeld",Arndtstraße 6-8,33602,Bielefeld,52.0248954,8.5298618
1797,"Altburger Straße 13, 75365 Calw",Altburger Straße 13,75365,Calw,48.715061750000004,8.73696459362355
2072,,,,,,
2073,"Hohe Bude 15, 39576 Stendal",Hohe Bude 15,39576,Stendal,52.60528085,11.85840950502774
1799,"Heidenheimer Straße 68, 73079 Süßen",Heidenheimer Straße 68,73079,Süßen,48.681196299999996,9.759611386986837
2366,"Hauptstraße 36, 16547 Birkenwerder",Hauptstraße 36,16547,Birkenwerder,52.688907,13.2826251
2367,"Walter-Schneider-Straße 6,06317 Seegebiet Mansfelder Land",Walter-Schneider-Straße 6,06317,Seegebiet Mansfelder Land,51.4867256,11.70441425
2367,"Friedrich-Schmidt-Straße 2, 06526 Sangerhausen",Friedrich-Schmidt-Straße 2,06526,Sangerhausen,51.47255245,11.296262977935323
1800,"Landvogtei 5, 79312 Emmendingen",Landvogtei 5,79312,Emmendingen,48.1210829,7.848171715579303
1801,"Berliner Straße 119, 16515 Oranienburg",Berliner Straße 119,16515,Oranienburg,52.7361633,13.2414569
2075,,,,,,
1335,,,,,,
2076,,,,,,
2368,,,,,,
2369,,,,,,
2596,"Gewerbestraße 2-4, 69221 Dossenheim",Gewerbestraße 2-4,69221,Dossenheim,49.4555565,8.6652826
2077,"Baaderstraße 59, 80469 München",Baaderstraße 59,80469,München,48.128534,11.576476215274152
1583,"Bahnhofstraße 36c, 34582 Borken",Bahnhofstraße 36c,34582,Borken,51.0469993,9.280899
1583,"Obermarkt 5, 35066 Frankenberg/ Eder",Obermarkt 5,35066,Frankenberg/ Eder,,
1806,"Justinus-Kerner-Str. 5, 78048 Villingen-Schwenningen",Justinus-Kerner-Str. 5,78048,Villingen-Schwenningen,48.060502799999995,8.452929604647277
1195,,,,,,
2079,,,,,,
1011,"Schützenstraße 1, 95028 Hof",Schützenstraße 1,95028,Hof,50.31977235,11.91336785
1665,"Jakobstraße 46, 90402 Nürnberg",Jakobstraße 46,90402,Nürnberg,49.4491648,11.0712983
2082,,,,,,
2081,,,,,,
2371,,,,,,
2370,"Am Eser 2, 86150 Augsburg",Am Eser 2,86150,Augsburg,48.359783500000006,10.900353555325943
2370,"Baldinger Str. 17, 86720 Nördlingen",Baldinger Str. 17,86720,Nördlingen,48.85268635,10.487027648302291
1649,"Königstraße 2, 23701 Eutin",Königstraße 2,23701,Eutin,54.1369144,10.616436
2372,,,,,,
2373,,,,,,
2375,,,,,,
1808,,,,,,
2084,,,,,,
2374,,,,,,
1630,"Max-Planck-Straße 6, 76829 Landau",Max-Planck-Straße 6,76829,Landau,49.1910406,8.139133001459623
1408,,,,,,
2376,"Löwenstraße 11, 96450 Coburg",Löwenstraße 11,96450,Coburg,50.2610619,10.9624987
2086,"Prenzlauer Allee 22, 10405 Berlin",Prenzlauer Allee 22,10405,Berlin,52.5318536,13.4203374
1647,,,,,,
2377,,,,,,
1410,,,,,,
2378,"Bahnhofstr. 9, 48282 Emsdetten",Bahnhofstr. 9,48282,Emsdetten,52.1756054,7.5307569
2087,,,,,,
1994,"Alleestr. 60, 66953 Pirmasens",Alleestr. 60,66953,Pirmasens,49.196868949999995,7.608727793554284
2467,,,,,,
2379,,,,,,
1020,"Schillergässchen 5, 07745 Jena",Schillergässchen 5,07745,Jena,50.9244439,11.5827034
2380,,,,,,
1616,"Schwanthaler Straße 139, 80339 München",Schwanthaler Straße 139,80339,München,48.1377167,11.5429612
2091,"Sankt-Anton-Straße 52, 47798 Krefeld",Sankt-Anton-Straße 52,47798,Krefeld,51.3340526,6.5635454
2381,,,,,,
2382,,,,,,
2383,,,,,,
1155,"Schlossstr. 2, 42551 Velbert",Schlossstr. 2,42551,Velbert,51.3415406,7.039439259470248
763,,,,,,
1208,"Bahnhofstraße 21, 21423 Winsen/ Luhe",Bahnhofstraße 21,21423,Winsen/ Luhe,,
1269,"Bahnhofstraße 27, 73728 Esslingen",Bahnhofstraße 27,73728,Esslingen,48.74090435,9.303307055141646
2591,,,,,,
1412,"Oraniendamm 6-10, 13469 Berlin",Oraniendamm 6-10,13469,Berlin,52.6074331,13.326566172011432
2384,,,,,,
764,"Wilhelmstraße 20, 37308 Heilbad Heiligenstadt",Wilhelmstraße 20,37308,Heilbad Heiligenstadt,51.3772315,10.134697902262836
764,"Bahnhofstraße 15/16, 99734 Nordhausen",Bahnhofstraße 15/16,99734,Nordhausen,,
764,"Hospitalstraße 88, 99706 Sondershausen",Hospitalstraße 88,99706,Sondershausen,51.3769115,10.8683638
2093,,,,,,
1813,"Poststr. 34, 21682 Stade",Poststr. 34,21682,Stade,53.6008649,9.4762956
2385,"Hauptstraße 390, 51143 Köln",Hauptstraße 390,51143,Köln,,
1815,"Reinhäuser Landstraße 5, 37083 Göttingen",Reinhäuser Landstraße 5,37083,Göttingen,51.5276098,9.939475895208837
2386,,,,,,
1176,"Händelweg 1, 68794 Oberhausen-Rheinhausen",Händelweg 1,68794,Oberhausen-Rheinhausen,49.27983965,8.478197040566037
167,,,,,,
1816,"Corbiestraße 22, 37671 Höxter",Corbiestraße 22,37671,Höxter,51.7767092,9.38363471792511
1816,"Emilienstraße 12, 32756 Detmold",Emilienstraße 12,32756,Detmold,51.9393849,8.87098265307688
2387,"Kornmarkt 12, 24837 Schleswig",Kornmarkt 12,24837,Schleswig,54.5177127,9.5671283
2387,"Heinrichstr. 16b, 24937 Flensburg",Heinrichstr. 16b,24937,Flensburg,54.7822896,9.4424171269544
2094,"Josephsplatz 4, 95444 Bayreuth",Josephsplatz 4,95444,Bayreuth,49.9454056,11.5800042
1324,"Lübecker Straße 6, 23701 Eutin",Lübecker Straße 6,23701,Eutin,54.1355472,10.6171013
1817,"Nördlicher Stadtgraben 9, 94469 Deggendorf",Nördlicher Stadtgraben 9,94469,Deggendorf,48.83509655,12.963665639156563
1817,"Ringmauerstraße 10, 94065 Waldkirchen",Ringmauerstraße 10,94065,Waldkirchen,48.7292846,13.5997808
1817,"Steinfelsstraße 2 a-c, 94405 Landau an der Isar",Steinfelsstraße 2 a-c,94405,Landau an der Isar,48.6717791,12.7013989
1818,"Lauterbachstraße 4, 01796 Pirna",Lauterbachstraße 4,01796,Pirna,50.9612268,13.935604162167873
1818,"Lange Straße 34, 01855 Sebnitz",Lange Straße 34,01855,Sebnitz,50.97227325,14.2774482
1637,,,,,,
1819,"Veringstraße 61, 21107 Hamburg",Veringstraße 61,21107,Hamburg,53.5129525,9.9867947
1819,"Julius-Ludowieg-Straße 9, 21073 Hamburg",Julius-Ludowieg-Straße 9,21073,Hamburg,53.4597814,9.978778110119025
1819,"Vierlandenstraße 27, 21029 Hamburg",Vierlandenstraße 27,21029,Hamburg,53.486495,10.2104773
2096,,,,,,
1620,"Höhne 41, 42109 Wuppertal",Höhne 41,42109,Wuppertal,51.2708861,7.2007335
1620,"Konrad-Adenauer-Straße 7, 42853 Remscheid",Konrad-Adenauer-Straße 7,42853,Remscheid,51.181064,7.1921339
1620,"Elisenstraße 11, 42651 Solingen",Elisenstraße 11,42651,Solingen,51.16842625,7.084826802470946
2388,"Radeberger Straße 51, 01099 Dresden",Radeberger Straße 51,01099,Dresden,51.06891485,13.772156311704546
2388,"Obermarkt 28, 04720 Döbeln",Obermarkt 28,04720,Döbeln,51.1221771,13.122551388830193
1821,"Frankfurter Str. 47, 53840 Troisdorf",Frankfurter Str. 47,53840,Troisdorf,50.8140688,7.170158424815206
2389,,,,,,
1416,,,,,,
1822,,,,,,
2099,"Unter Käster 1-3, 50667 Köln",Unter Käster 1-3,50667,Köln,50.9378005,6.9602706
1824,,,,,,
1825,"Altenessener Straße 268, 45326 Essen",Altenessener Straße 268,45326,Essen,51.4894187,7.009367635674382
2289,"In der Burg 18, 61169 Friedberg",In der Burg 18,61169,Friedberg,50.34153645,8.752524388164137
2289,"Schmidtgasse 8, 63571 Gelnhausen",Schmidtgasse 8,63571,Gelnhausen,50.201192,9.192480776204775
1030,"Goethestraße 16, 31224 Peine",Goethestraße 16,31224,Peine,52.322946099999996,10.231651486033625
1030,"Steinweig 11, 38518 Gifhorn",Steinweig 11,38518,Gifhorn,,
1586,,,,,,
2390,,,,,,
2101,"Clayallee 349, 14169 Berlin",Clayallee 349,14169,Berlin,52.4360053,13.2606719
1826,,,,,,
2391,,,,,,
2392,,,,,,
1989,"Feldschmiede 77 A, 25524 Itzehoe",Feldschmiede 77 A,25524,Itzehoe,53.9260859,9.5135605
1989,"Neue Anlage 17, 25746 Heide",Neue Anlage 17,25746,Heide,54.1931796,9.093842514190738
2102,,,,,,
1760,"Ulricherstr. 27, 59494 Soest",Ulricherstr. 27,59494,Soest,51.5676165,8.107475919534412
1760,"Cappelstrasse 7, 59555 Lippstadt",Cappelstrasse 7,59555,Lippstadt,51.6762347,8.3425356
2393,,,,,,
2395,,,,,,
2394,"Pilse 29, 99084 Erfurt",Pilse 29,99084,Erfurt,50.977241,11.032966
2104,"Zapfeweg 18, 48653 Coesfeld",Zapfeweg 18,48653,Coesfeld,51.9468733,7.1617458
2104,"Johannesstraße 5, 48329 Havixbeck",Johannesstraße 5,48329,Havixbeck,51.9745608,7.4148124
2105,"Kommerner Straße 100, 53879 Euskirchen",Kommerner Straße 100,53879,Euskirchen,50.6587696,6.777443
2106,"Radeberger Straße 51, 01099 Dresden",Radeberger Straße 51,01099,Dresden,51.06891485,13.772156311704546
2396,"Hermannstraße 6, 09111 Chemnitz",Hermannstraße 6,09111,Chemnitz,50.8425702,12.9253075
2396,"Innere Schneeberger Straße 16, 08056 Zwickau",Innere Schneeberger Straße 16,08056,Zwickau,50.7159489,12.4967133
2397,"Goldstraße 5, 46325 Borken",Goldstraße 5,46325,Borken,51.8429876,6.8582611
2110,,,,,,
2111,,,,,,
2605,,,,,,
1673,,,,,,
2398,"Hallertorstraße 16, 92318 Neumarkt i. d. OPf.",Hallertorstraße 16,92318,Neumarkt i. d. OPf.,49.2790342,11.4558512
2398,"Schlachthausstr. 6, 92224 Amberg",Schlachthausstr. 6,92224,Amberg,49.44344395,11.863474361470274
2112,"Karl-Marx-Str. 15, 02625 Bautzen",Karl-Marx-Str. 15,02625,Bautzen,51.1785489,14.4284751
1538,"Georgenstraße 27, 99817 Eisenach",Georgenstraße 27,99817,Eisenach,50.97573955,10.316328537915552
1538,"Lange Straße 3-4, 999947 Bad Langensalza",Lange Straße 3-4,99994,7 Bad Langensalza,,
1538,"Steinweg 51, 99974 Mühlhausen",Steinweg 51,99974,Mühlhausen,51.210024,10.4627435
1831,"Karl-Sauer-Str. 8, 76829 Landau in der Pfalz",Karl-Sauer-Str. 8,76829,Landau in der Pfalz,49.1938405,8.1140818
1831,"Marktstr. 27, 76887 Bad Bergzabern",Marktstr. 27,76887,Bad Bergzabern,49.101128450000004,7.996531553406022
2114,"Verdener Straße 51, 28832 Achim",Verdener Straße 51,28832,Achim,53.0010845,9.0619682
2113,"Mainzer Str. 34, 55743 Idar-Oberstein",Mainzer Str. 34,55743,Idar-Oberstein,49.719097,7.3023375
2113,"Neue Straße 2, 55606 Kirn",Neue Straße 2,55606,Kirn,49.787153,7.458288883528644
1674,,,,,,
2399,,,,,,
1832,"Baumhofstraße 21, 97282 Marktheidenfeld",Baumhofstraße 21,97282,Marktheidenfeld,49.84665495,9.608594492967288
2115,"Bahnhofstr. 1, 34590 Wabern",Bahnhofstr. 1,34590,Wabern,51.1034329,9.3580668
2116,"Hauptstraße 46, 79639 Grenzach-Wyhlen",Hauptstraße 46,79639,Grenzach-Wyhlen,47.5533504,7.6614468
1426,"Franziskanerstr. 14, 81669 München",Franziskanerstr. 14,81669,München,48.1267725,11.5919659
2604,"Großer Plan 27, 29221 Celle",Großer Plan 27,29221,Celle,52.6229108,10.08134756316739
2120,"Mariakronstraße 12-14, 18437 Stralsund",Mariakronstraße 12-14,18437,Stralsund,54.3149744,13.077178
2121,,,,,,
1833,,,,,,
2400,"Wandsbeker Königstraße 66, 22041 Hamburg",Wandsbeker Königstraße 66,22041,Hamburg,53.5757273,10.0624634
2401,,,,,,
2122,,,,,,
2123,"Margarete-Reichl-Straße 6, 85354 Freising",Margarete-Reichl-Straße 6,85354,Freising,48.3709414,11.7033069
2123,"Lilienthalstraße 19a, 85296 Rohrbach",Lilienthalstraße 19a,85296,Rohrbach,48.609311,11.5785649
2402,"Petrusstraße 1, 54292 Trier",Petrusstraße 1,54292,Trier,49.75978565,6.645886836697986
2403,,,,,,
217,"Parkstraße 31, 59425 Unna",Parkstraße 31,59425,Unna,51.544125449999996,7.689724655481209
1578,,,,,,
2404,,,,,,
2125,,,,,,
1839,"Jägergasse 2, 85408 Gammelsdorf",Jägergasse 2,85408,Gammelsdorf,48.5537421,11.9449235
2127,"Unter Käster 1, 50667 Köln",Unter Käster 1,50667,Köln,50.9375418,6.9600612
1840,"Winzererstraße 27, 80797 München",Winzererstraße 27,80797,München,48.1590936,11.5609257
2405,,,,,,
2406,"Am Kirchplatz 4, 26441 Jever",Am Kirchplatz 4,26441,Jever,53.5736684,7.9015955
1738,"Wasserstraße 5, 40213 Düsseldorf",Wasserstraße 5,40213,Düsseldorf,51.218103049999996,6.772081029517162
2128,"Eichhofstraße 27-29, 24116 Kiel",Eichhofstraße 27-29,24116,Kiel,54.33294465,10.10642805263158
2129,,,,,,
1433,"Hofhalde 12, 78462 Konstanz",Hofhalde 12,78462,Konstanz,47.6627165,9.1754397
1845,"Großschmiedestraße 9, 23966 Wismar",Großschmiedestraße 9,23966,Wismar,53.89119545,11.46819239240947
1845,"Dammchausssee 3, 18209 Bad Doberan",Dammchausssee 3,18209,Bad Doberan,,
1845,"Lange Straße 40, 19370 Parchim",Lange Straße 40,19370,Parchim,53.4281023,11.844693041104474
1434,"Untere Neckarstrasse 50, 74072 Heilbronn",Untere Neckarstrasse 50,74072,Heilbronn,49.1450148,9.217780451691542
2407,,,,,,
1551,"Untere Husemannstr. 38, 59425 Unna",Untere Husemannstr. 38,59425,Unna,51.5417746,7.685615
2408,,,,,,
2132,,,,,,
2134,,,,,,
2409,"Untere Marktstraße 6, 71634 Ludwigsburg",Untere Marktstraße 6,71634,Ludwigsburg,48.89840975,9.191695196401731
1851,"Oststr. 1, 49477 Ibbenbüren",Oststr. 1,49477,Ibbenbüren,52.2759028,7.7187578
2410,,,,,,
2411,,,,,,
1853,"Kapellenstraße 17, 76437 Rastatt",Kapellenstraße 17,76437,Rastatt,48.8564005,8.206690604058757
2412,,,,,,
2413,"Brudergasse 6, 07318 Saalfeld",Brudergasse 6,07318,Saalfeld,50.647389,11.3593268
2413,"Rudolf-Breitscheid-Str. 4, 07768 Kahla",Rudolf-Breitscheid-Str. 4,07768,Kahla,50.8033722,11.5892269
1720,,,,,,
2415,"Brüderstraße 1, 16278 Angermünde",Brüderstraße 1,16278,Angermünde,53.016988749999996,14.003402184250687
2415,"Mühlenstr. 5d, 15517 Fürstenwalde",Mühlenstr. 5d,15517,Fürstenwalde,52.3578,14.0631469
1996,"Wichernstr. 10, 89073 Ulm",Wichernstr. 10,89073,Ulm,48.4009303,10.0029033
2416,,,,,,
1557,,,,,,
2139,"Hochstr. 17, 47228 Duisburg",Hochstr. 17,47228,Duisburg,51.416099700000004,6.709273806974558
2417,,,,,,
1567,,,,,,
2140,,,,,,
1709,"Senior-Blumenberg-Gang 1, 30159 Hannover",Senior-Blumenberg-Gang 1,30159,Hannover,52.3700008,9.7390456
1855,,,,,,
2418,,,,,,
2141,"Erthalstraße 14, 63739 Aschaffenburg",Erthalstraße 14,63739,Aschaffenburg,49.9777806,9.1432402
2419,,,,,,
1640,,,,,,
1580,"Windthorststr. 7, 48143 Münster",Windthorststr. 7,48143,Münster,51.95687595,7.633236085002993
2142,"Parkstraße 5, 04895 Falkenberg/Elster",Parkstraße 5,04895,Falkenberg/Elster,,
2420,,,,,,
1374,"Lange Straße 27, 29644 Walsrode",Lange Straße 27,29644,Walsrode,52.8608656,9.5893556
2421,,,,,,
2422,"Turmstraße 81, 10551 Berlin",Turmstraße 81,10551,Berlin,52.5264175,13.337195
2145,,,,,,
2423,,,,,,
1730,"Meisenweg 1, 27245 Kirchdorf",Meisenweg 1,27245,Kirchdorf,52.59842285,8.84202235377155
1730,"Syker Straße 40, 27211 Bassum",Syker Straße 40,27211,Bassum,52.85521715,8.735403693984157
1734,"Aaraustraße 15, 72762 Reutlingen",Aaraustraße 15,72762,Reutlingen,48.4860995,9.2020232
2146,"Baaderstraße 59, 80469 München",Baaderstraße 59,80469,München,48.128534,11.576476215274152
2424,,,,,,
2148,,,,,,
1441,,,,,,
1860,"Hauptstraße 28, 08056 Zwickau",Hauptstraße 28,08056,Zwickau,,
1368,"Kniebos 3, 82378 Traunstein",Kniebos 3,82378,Traunstein,,
2147,"Woldegker Straße 27, 17033 Neubrandenburg",Woldegker Straße 27,17033,Neubrandenburg,53.5591399,13.2751834
2147,"Lilienthal-Center, Markt 7, 17389 Anklam",Lilienthal-Center Markt 7,17389,Anklam,,
2149,,,,,,
1859,"Alte Sattelfabrik 2, 61350 Bad Homburg",Alte Sattelfabrik 2,61350,Bad Homburg,50.240426799999995,8.606297250000008
1859,"Kapellenstraße 4, 65555 Limburg an der Lahn",Kapellenstraße 4,65555,Limburg an der Lahn,50.4094742,8.064677491606448
2425,"Rehlingstraße 16a, 79100 Freiburg",Rehlingstraße 16a,79100,Freiburg,47.9902233,7.839464664850427
1442,"Kleine Wilhelmstr. 2bb, 06406 Bernburg (Saale)",Kleine Wilhelmstr. 2bb,06406,Bernburg (Saale),51.7965456,11.7402999
1442,"Friedrich-Ebert-Str. 22, 06366 Köthen (Anhalt)",Friedrich-Ebert-Str. 22,06366,Köthen (Anhalt),51.7534798,11.9872789
2426,"Wasserstraße 2, 15374 Müncheberg",Wasserstraße 2,15374,Müncheberg,52.5033499,14.1394641
2151,"Mühlenstraße 44, 03046 Cottbus",Mühlenstraße 44,03046,Cottbus,51.7596336,14.334034468096643
2427,"Lauteschlägerstraße 38, 64289 Darmstadt",Lauteschlägerstraße 38,64289,Darmstadt,49.8780109,8.660248175676209
2428,,,,,,
2152,"Stadtplatz 12B, 86551 Aichach",Stadtplatz 12B,86551,Aichach,48.45899175,11.130889368072243
2152,"Zum Maierhof 2, 86650 Wemding",Zum Maierhof 2,86650,Wemding,48.8755659,10.7245941
1050,,,,,,
2429,"Bahnhof 1C, 38300 Wolfenbüttel",Bahnhof 1C,38300,Wolfenbüttel,52.1596747,10.5327122
2429,"Riesentrapp 14, 38226 Salzgitter",Riesentrapp 14,38226,Salzgitter,52.158110949999994,10.317018454958413
2602,,,,,,
1344,"Westliche Karl-Friedrich-Str. 104, 75172 Pforzheim",Westliche Karl-Friedrich-Str. 104,75172,Pforzheim,48.8921926,8.6930894
1174,"Regentenstr. 11, 41061 Mönchengladbach",Regentenstr. 11,41061,Mönchengladbach,51.1968521,6.4336758
2430,"Bürgelstraße 1, 39104 Magdeburg",Bürgelstraße 1,39104,Magdeburg,52.1218252,11.6329718
2603,"Bahnstraße 50, 45468 Mülheim",Bahnstraße 50,45468,Mülheim,51.42992445,6.884440966753465
2431,,,,,,
2432,"Walderseestraße 21, 30177 Hannover",Walderseestraße 21,30177,Hannover,52.39251335,9.761184457982715
2154,,,,,,
2433,"Goebenstraße 3, 10783 Berlin-Schöneberg",Goebenstraße 3,10783,Berlin-Schöneberg,52.4939557,13.362203
1327,"Kolonnenstraße 53, 10829 Berlin",Kolonnenstraße 53,10829,Berlin,52.4859327,13.3621361
2156,"Postfach 20 01 16, 37086 Göttingen",Postfach 20 01 16,37086,Göttingen,,
1329,,,,,,
2434,,,,,,
2435,,,,,,
1599,"Deininger Straße 1, 86720 Nördlingen",Deininger Straße 1,86720,Nördlingen,48.85138145,10.49162297389806
2436,,,,,,
2437,,,,,,
2438,,,,,,
1865,"Eduard-Bayerlein-Str. 5, 95445 Bayreuth",Eduard-Bayerlein-Str. 5,95445,Bayreuth,49.94965055,11.570258728781512
1451,"Mülheimer Freiheit 132, 51063 Köln",Mülheimer Freiheit 132,51063,Köln,50.966961999999995,7.00149072014806
1561,,,,,,
2159,"Spiegelgasse 5, 93047 Regensburg",Spiegelgasse 5,93047,Regensburg,49.01757365,12.094237766040374
2160,"Arnoldplatz 33, 04319 Leipzig",Arnoldplatz 33,04319,Leipzig,51.348349150000004,12.492097476165343
2161,"Ebertplatz 23, 50668 Köln",Ebertplatz 23,50668,Köln,50.9511104,6.958645
2295,"Frankfurter Str. 45, 15907 Lübben",Frankfurter Str. 45,15907,Lübben,51.94507485,13.915790620599083
2295,"Am Markt 33, 14943 Luckenwalde",Am Markt 33,14943,Luckenwalde,,
1453,"Steinachstr. 3b, 97080 Würzburg",Steinachstr. 3b,97080,Würzburg,49.79852545,9.91168275
1866,"Rudolf-Walther-Straße 4, 63584 Gründau",Rudolf-Walther-Straße 4,63584,Gründau,50.2029313,9.1347381
2439,"Keltergasse 47, 74653 Künzelsau",Keltergasse 47,74653,Künzelsau,49.279415150000005,9.688928809362066
1867,"Otto-von-Guericke-Straße 65, 39104 Magdeburg",Otto-von-Guericke-Straße 65,39104,Magdeburg,52.1243316,11.6287384
2440,,,,,,
1569,,,,,,
1869,"Bahnhofstr 2, 85560 Ebersberg",Bahnhofstr 2,85560,Ebersberg,48.0776739,11.9702827
1869,"Katharina-Fischer-Platz 2, 85435 Erding",Katharina-Fischer-Platz 2,85435,Erding,48.305674999999994,11.905982277831058
2442,,,,,,
2443,,,,,,
2445,"Niddastraße 108, 60329 Frankfurt am Main",Niddastraße 108,60329,Frankfurt am Main,50.10707845,8.656915733578042
2444,,,,,,
2446,,,,,,
2447,"Wendenstraße 10, 31785 Hameln",Wendenstraße 10,31785,Hameln,52.103195,9.3542949
2162,"Obergrünewalder Straße 10, 42103 Wuppertal",Obergrünewalder Straße 10,42103,Wuppertal,51.255993450000005,7.137336176791159
1872,"Knodestraße 3, 63741 Aschaffenburg",Knodestraße 3,63741,Aschaffenburg,49.98322845,9.150413332252352
2163,"Bensberger Str. 99, 51469 Bergisch Gladbach",Bensberger Str. 99,51469,Bergisch Gladbach,50.9851927,7.134327466603056
1752,,,,,,
2164,"Heidelbergerstraße 90B, 74080 Heilbronn",Heidelbergerstraße 90B,74080,Heilbronn,49.146175,9.1851128
1631,,,,,,
1196,,,,,,
1241,"Zingster Straße 12, 13051 Berlin",Zingster Straße 12,13051,Berlin,52.5656769,13.5032319
2449,,,,,,
2166,"Adamstraße 2, 80636 München",Adamstraße 2,80636,München,48.148836,11.5485116
2167,"Alter Markt 8, 53879 Euskirchen",Alter Markt 8,53879,Euskirchen,50.6615738,6.787036
2450,"Diekampstraße 37, 44787 Bochum",Diekampstraße 37,44787,Bochum,51.4799006,7.211284
2450,"Freiheitstraße 6, 44866 Wattenscheid",Freiheitstraße 6,44866,Wattenscheid,51.4814829,7.1348542
1605,"Kolonnenstr. 4, 10827 Berlin",Kolonnenstr. 4,10827,Berlin,52.4863439,13.3590769
1243,"Klepperstr. 19, 83026 Rosenheim",Klepperstr. 19,83026,Rosenheim,47.848073150000005,12.118492447917873
2451,,,,,,
2452,"Luitpoldstr. 6, 91207 Lauf a.d. Pegnitz",Luitpoldstr. 6,91207,Lauf a.d. Pegnitz,49.5077163,11.2813891
2453,"Hagener Str. 81, 58769 Nachrodt-Wiblingwerde",Hagener Str. 81,58769,Nachrodt-Wiblingwerde,51.33805715,7.635398748036317
2453,"Elisabethstraße 32, 58636 Iserlohn",Elisabethstraße 32,58636,Iserlohn,51.37712795,7.707196136958607
1621,,,,,,
1703,"Bahnhofstr. 9, 66538 Neunkirchen/ Saar",Bahnhofstr. 9,66538,Neunkirchen/ Saar,,
1703,"Nauwieserstr. 9, 66111 Saarbrücken",Nauwieserstr. 9,66111,Saarbrücken,49.2357918,6.9999142
2454,,,,,,
2455,"Kernerstraße 211, 75323 Bad Wildbad",Kernerstraße 211,75323,Bad Wildbad,48.737981250000004,8.545079467444218
2290,"Leiningerstraße 12, 67098 Bad Dürkheim",Leiningerstraße 12,67098,Bad Dürkheim,49.4596666,8.1671513
2290,"Maximilianstraße 31, 67433 Neustadt a.d. Weinstraße",Maximilianstraße 31,67433,Neustadt a.d. Weinstraße,49.3564347,8.1473827
2290,"Gutenbergstraße 11, 67346 Speyer",Gutenbergstraße 11,67346,Speyer,49.3186957,8.4321094
1876,"Altmarkt 4, 08209 Auerbach",Altmarkt 4,08209,Auerbach,50.5095204,12.3999998
1876,"Rädelstraße 2, 08523 Plauen",Rädelstraße 2,08523,Plauen,50.4981468,12.1365886
2456,"Tilly-Schanzen-Straße 15, 17033 Neubrandenburg",Tilly-Schanzen-Straße 15,17033,Neubrandenburg,53.5585721,13.2764536
2457,,,,,,
2173,,,,,,
2174,"Apothekergässchen 1, 64646 Heppenheim",Apothekergässchen 1,64646,Heppenheim,,
2459,,,,,,
2302,"Kleekamp 2, 22335 Hamburg",Kleekamp 2,22335,Hamburg,53.6320309,10.0261221
2460,,,,,,
2461,,,,,,
1458,"Jörg-Ratgeb-Straße 23, 75173 Pforzheim",Jörg-Ratgeb-Straße 23,75173,Pforzheim,48.8895565,8.6969686
1601,"Schulstraße 2a, 28870 Ottersberg/Posthausen",Schulstraße 2a,28870,Ottersberg/Posthausen,,
1601,"Bahnhofstraße 33a, 27711 Osterholz-Scharmbeck",Bahnhofstraße 33a,27711,Osterholz-Scharmbeck,53.2239764,8.7976323
1347,,,,,,
2463,,,,,,
2462,,,,,,
2464,,,,,,
2465,,,,,,
779,"Hauptstraße 71-73, 64625 Bensheim",Hauptstraße 71-73,64625,Bensheim,49.67943285,8.621369017652981
779,"Schönbacher Straße 5, 64646 Heppenheim",Schönbacher Straße 5,64646,Heppenheim,49.6482623,8.6348955
2595,"Großer Plan 27, 29221 Celle",Großer Plan 27,29221,Celle,52.6229108,10.08134756316739
2595,"Lüneburger Str. 42, 29525 Uelzen",Lüneburger Str. 42,29525,Uelzen,52.9676646,10.561167356803153
2466,"Friedensplatz 4, 26122 Oldenburg",Friedensplatz 4,26122,Oldenburg,53.1416393,8.2075785
2468,"Le-Puy-Straße 17, 59872 Meschede",Le-Puy-Straße 17,59872,Meschede,51.3488515,8.2799727
2469,,,,,,
1882,"Weckerlingplatz 1, 67547 Worms",Weckerlingplatz 1,67547,Worms,49.6284684,8.3583664
1882,"St. Georgen-Str. 50, 55232 Alzey",St. Georgen-Str. 50,55232,Alzey,49.743822,8.1151855
2178,"Dorotheenstraße 56, 10117 Berlin",Dorotheenstraße 56,10117,Berlin,52.5187914,13.3871576
2470,,,,,,
2471,,,,,,
1652,"Heger-Tor-Wall 23, 49078 Osnabrück",Heger-Tor-Wall 23,49078,Osnabrück,52.2744934,8.0393712
1463,"Odeonstraße 15/16, 30159 Hannover",Odeonstraße 15/16,30159,Hannover,,
2472,,,,,,
1883,"Hagenstraße 39, 45894 Gelsenkirchen",Hagenstraße 39,45894,Gelsenkirchen,51.580034600000005,7.050512854539385
2473,"Sickingenstraße 7-9, 34117 Kassel",Sickingenstraße 7-9,34117,Kassel,51.32039015,9.49471348813787
2473,"Rabanusstr. 35, 36037 Fulda",Rabanusstr. 35,36037,Fulda,50.549963,9.6816707
1885,"Arthur-Fitger-Straße 10, 27749 Delmenhorst",Arthur-Fitger-Straße 10,27749,Delmenhorst,53.045915449999995,8.63560288581311
1625,,,,,,
2184,"St.-Annen-Str. 2, 26441 Jever",St.-Annen-Str. 2,26441,Jever,53.573907750000004,7.899887029981266
2474,"Heilbronner Straße 43, 70191 Stuttgart",Heilbronner Straße 43,70191,Stuttgart,48.7903854,9.1804243
2181,"Bahnhofsplatz 4, 26122 Oldenburg",Bahnhofsplatz 4,26122,Oldenburg,53.1429182,8.2220279
2183,"Markt 9, 52249 Eschweiler",Markt 9,52249,Eschweiler,50.8202321,6.2700786
2475,,,,,,
1718,"Lübecker Straße 6, 19053 Schwerin",Lübecker Straße 6,19053,Schwerin,53.62881235,11.409813704232466
2476,,,,,,
2477,,,,,,
2186,,,,,,
2187,"Rosenstraße 26, 88212 Ravensburg",Rosenstraße 26,88212,Ravensburg,47.7833999,9.612750240738029
1888,"Altenhaßlauer Str. 21, 63571 Gelnhausen",Altenhaßlauer Str. 21,63571,Gelnhausen,50.1965496,9.193973592018907
1469,"Gieselerwall 2, 38100 Braunschweig",Gieselerwall 2,38100,Braunschweig,52.2583017,10.5162748
2188,"Alter Markt 7, 18439 Stralsund",Alter Markt 7,18439,Stralsund,54.31627845,13.089670827157494
2188,"Doberaner Str. 13, 18057 Rostock",Doberaner Str. 13,18057,Rostock,54.0881962,12.1225998
1470,"Dresdner Str. 38, 09130 Chemnitz",Dresdner Str. 38,09130,Chemnitz,50.8353691,12.9306756
1470,"Altmarkt 13A, 08523 Plauen",Altmarkt 13A,08523,Plauen,50.4938317,12.1354137
2478,"Martinstraße 49, 57462 Olpe,",Martinstraße 49 57462 Olpe,57462,"Olpe,",51.02950715,7.8517216256461015
2478,"Friedrichstraße 21, 58507 Lüdenscheid",Friedrichstraße 21,58507,Lüdenscheid,51.2193154,7.6263832
2479,"Bleibtreustraße 33, 10707 Berlin",Bleibtreustraße 33,10707,Berlin,52.5006068,13.3194947
2480,,,,,,
2190,"Johann-Friedrich-Böttger-Str. 10, 06886 Lutherstadt Wittenberg",Johann-Friedrich-Böttger-Str. 10,06886,Lutherstadt Wittenberg,51.87401165,12.64243776481225
2190,"Markt 23, 06917 Jessen (Elster)",Markt 23,06917,Jessen (Elster),51.7850792,12.9570885
1291,"Ludwig-Erhard-Straße 9a, 91052 Erlangen",Ludwig-Erhard-Straße 9a,91052,Erlangen,49.5905837,11.034291768181038
1556,,,,,,
2192,"Jakobikirchpl. 2, 09111 Chemnitz",Jakobikirchpl. 2,09111,Chemnitz,50.83330485,12.91878171336005
1889,"Bochumer Str. 26, 44623 Herne",Bochumer Str. 26,44623,Herne,51.534525099999996,7.225657119993734
2194,,,,,,
1309,"Magnusstr. 18b, 50672 Köln",Magnusstr. 18b,50672,Köln,50.9403642,6.9444619
2481,"Mauritzstr. 4-6, 48143 Münster",Mauritzstr. 4-6,48143,Münster,51.9628502,7.6322475
2482,,,,,,
2483,,,,,,
2195,"Burchardstr. 21, 20095 Hamburg",Burchardstr. 21,20095,Hamburg,53.5492119,9.999661474378678
2484,"Wallstr. 5, 08606 Oelsnitz/ Vogtland",Wallstr. 5,08606,Oelsnitz/ Vogtland,,
2196,"Holstenstraße 10a, 25335 Elmshorn",Holstenstraße 10a,25335,Elmshorn,53.7551182,9.6569816
2486,,,,,,
2485,,,,,,
2198,"Lollfuß 60, 24837 Schleswig",Lollfuß 60,24837,Schleswig,54.51433495,9.552541047314325
1077,"Kölner Landstr. 304, 52351 Düren",Kölner Landstr. 304,52351,Düren,50.8109978,6.5104327
2199,,,,,,
1622,,,,,,
1529,"Oppenheimer Straße 17, 60594 Frankfurt/ Main",Oppenheimer Straße 17,60594,Frankfurt/ Main,,
2487,"Von der Tann Str. 1, 95028 Hof",Von der Tann Str. 1,95028,Hof,50.3134498,11.9118282450311
2488,"Am Freiheitsplatz 6, 63450 Hanau",Am Freiheitsplatz 6,63450,Hanau,50.13579665,8.918613866402982
1895,"Schafhausener Str. 42, 52525 Heinsberg",Schafhausener Str. 42,52525,Heinsberg,51.0587634,6.106222853656433
1898,,,,,,
1899,"Krummacher Straße 33, 47051 Duisburg",Krummacher Straße 33,47051,Duisburg,51.42811835,6.762685171513258
1735,,,,,,
2489,,,,,,
2201,"Mainzer Straße 5, 66111 Saarbrücken",Mainzer Straße 5,66111,Saarbrücken,49.2316295,6.9993412
1896,"Freyung 618, 84028 Landshut",Freyung 618,84028,Landshut,48.5350673,12.156116
1896,"Weinbergerstraße 2, 93326 Abensberg",Weinbergerstraße 2,93326,Abensberg,48.8155454,11.8463249
2202,,,,,,
1475,"Südwall 26, 29221 Celle",Südwall 26,29221,Celle,52.62200255,10.082212720792484
2490,,,,,,
2203,,,,,,
2491,,,,,,
1900,"Steinweg 5, 38518 Gifhorn",Steinweg 5,38518,Gifhorn,52.48763325,10.546125426451171
1900,"Freiligrathstraße 4, 31224 Peine",Freiligrathstraße 4,31224,Peine,52.32696425,10.233266174606158
2492,"Schloßstraße 8, 38100 Braunschweig",Schloßstraße 8,38100,Braunschweig,52.26165399999999,10.528918613527203
2493,,,,,,
2494,"Friedrichstraße 22a, 15537 Erkner",Friedrichstraße 22a,15537,Erkner,52.4213253,13.7531152
2494,"Eisenbahnstraße 9, 15517 Fürstenwalde/Spree",Eisenbahnstraße 9,15517,Fürstenwalde/Spree,,
2494,"Saarlouiser Straße 31, 15890 Eisenhüttenstadt",Saarlouiser Straße 31,15890,Eisenhüttenstadt,52.1442443,14.6282353
2494,"Große Scharrnstraße 11a, 15230 Frankfurt (Oder)",Große Scharrnstraße 11a,15230,Frankfurt (Oder),52.3455381,14.5527876
1085,"Henny-Porten-Straße 10-12, 12627 Berlin",Henny-Porten-Straße 10-12,12627,Berlin,52.5390345,13.6037181
1571,"Uhlandstr. 79, 10717 Berlin",Uhlandstr. 79,10717,Berlin,52.4903094,13.3227517
2495,"In den Kolonnaden 1, 61231 Bad Nauheim",In den Kolonnaden 1,61231,Bad Nauheim,50.3657472,8.7423695
2496,,,,,,
2205,"Stuttgarter Allee 18, 04209 Leipzig",Stuttgarter Allee 18,04209,Leipzig,51.3164588,12.2920181
2206,,,,,,
2207,"Friedrichstraße 53, 95448 Bayreuth",Friedrichstraße 53,95448,Bayreuth,49.9371015,11.5769794
1991,,,,,,
2498,"Karl-Liebknecht Straße 91, 04275 Leipzig",Karl-Liebknecht Straße 91,04275,Leipzig,51.321931,12.3738559
2210,"Verdistraße 135, 81247 München",Verdistraße 135,81247,München,48.1643932,11.460597893776217
2499,"Obere Badgasse 6, 90518 Altdorf",Obere Badgasse 6,90518,Altdorf,49.3860793,11.3561737
2211,"Leinpfad 74, 22299 Hamburg",Leinpfad 74,22299,Hamburg,53.587951000000004,9.998078553211013
2500,"Goetersstraße 54, 41747 Viersen",Goetersstraße 54,41747,Viersen,51.2599274,6.3917169
2213,"Hesseröder Straße 11, 99734 Nordhausen",Hesseröder Straße 11,99734,Nordhausen,51.502117,10.7831924
2213,"Hauptstraße 41, 99706 Sondershausen",Hauptstraße 41,99706,Sondershausen,51.3711785,10.873856203145088
2214,,,,,,
1908,"Brüderweg 10-12, 44135 Dortmund",Brüderweg 10-12,44135,Dortmund,51.5149822,7.4741846
1909,,,,,,
2215,"Griesgasse 9, 84130 Dingolfing",Griesgasse 9,84130,Dingolfing,48.6271413,12.497725
1912,"Mainzer Allee 17-19, 65232 Taunusstein",Mainzer Allee 17-19,65232,Taunusstein,50.1538676,8.184976456702028
788,"Binsfelder Straße 95, 52351 Düren",Binsfelder Straße 95,52351,Düren,50.8023585,6.498301762887442
1913,"Carl-Wilhelm-Straße 30-32, 47798 Krefeld",Carl-Wilhelm-Straße 30-32,47798,Krefeld,51.3343734,6.5606639
1914,"Valepper Str. 28, 83700 Rottach Egern",Valepper Str. 28,83700,Rottach Egern,47.6818296,11.810989
2501,"Kaiser-Joseph-Straße 216, 79098 Freiburg",Kaiser-Joseph-Straße 216,79098,Freiburg,47.9953178,7.8497025
1915,,,,,,
429,,,,,,
2502,,,,,,
2503,"Stiftsbleiche 6, 48231 Warendorf",Stiftsbleiche 6,48231,Warendorf,51.920296750000006,7.9677178593919376
2216,"Domherrenstr. 7, 06712 Zeitz",Domherrenstr. 7,06712,Zeitz,51.050288,12.1286642
2216,"Bülstringer Str. 1, 39340 Haldensleben",Bülstringer Str. 1,39340,Haldensleben,52.291309999999996,11.410876090031643
2504,,,,,,
2505,"Domeierstr. 6, 31785 Hameln",Domeierstr. 6,31785,Hameln,52.1072786,9.3538114
2505,"Parkstr. 24a, 49080 Osnabrück",Parkstr. 24a,49080,Osnabrück,52.2676738,8.0394181
2505,"Zum Fernsehturm 17, 26605 Aurich",Zum Fernsehturm 17,26605,Aurich,53.463908950000004,7.501806566689342
2506,,,,,,
2218,,,,,,
1916,,,,,,
2220,,,,,,
2507,"Heinrichsallee 52/54, 52062 Aachen",Heinrichsallee 52/54,52062,Aachen,,
1568,"Braithweg 27, 88400 Biberach",Braithweg 27,88400,Biberach,48.0963117,9.7859968
2221,"Falkertstraße 58, 70176 Stuttgart",Falkertstraße 58,70176,Stuttgart,48.7821389,9.162335198327828
2221,"Karlstraße 10, 79104 Freiburg",Karlstraße 10,79104,Freiburg,47.9986522,7.854792091474345
2221,"Deutschhausgasse 7, 89073 Ulm",Deutschhausgasse 7,89073,Ulm,48.3981267,9.9862105
1918,,,,,,
2508,,,,,,
2592,"Platz der Republik 11, 41515 Grevenbroich",Platz der Republik 11,41515,Grevenbroich,51.08877075,6.583123025353796
1484,"Kanzleistraße 1, 24768 Rendsburg",Kanzleistraße 1,24768,Rendsburg,54.299105,9.6670337
1677,,,,,,
794,"Mülheimer Str. 33a, 53604 Bad Honnef",Mülheimer Str. 33a,53604,Bad Honnef,50.6425197,7.2296853836545045
2509,,,,,,
1919,"Huntestraße 23, 26135 Oldenburg",Huntestraße 23,26135,Oldenburg,53.1400414,8.2212993
2510,"Kesselsdorfer Straße 41, 01159 Dresden",Kesselsdorfer Straße 41,01159,Dresden,51.0426243,13.6915477
2511,,,,,,
1920,"Karlstraße 3, 72072 Tübingen",Karlstraße 3,72072,Tübingen,48.51819,9.0582959
2512,,,,,,
1307,,,,,,
1093,"Bahnhofstr. 5, 36251 Bad Hersfeld",Bahnhofstr. 5,36251,Bad Hersfeld,50.87008245,9.71385603873679
1093,"Niederhoner Straße 2, 37269 Eschwege",Niederhoner Straße 2,37269,Eschwege,51.1919185,10.044309345609054
2597,,,,,,
2222,,,,,,
2223,"Lindenallee 49, 47533 Kleve",Lindenallee 49,47533,Kleve,51.7827986,6.130158489600484
2513,"Friedrich-Ebert-Ring 36, 56068 Koblenz",Friedrich-Ebert-Ring 36,56068,Koblenz,50.3555007,7.59386995472126
2514,"Marienstraße 57, 99817 Eisenach",Marienstraße 57,99817,Eisenach,50.96884885,10.322660536958901
1713,"Marktstr. 102, 56564 Neuwied",Marktstr. 102,56564,Neuwied,50.4304041,7.4645867
1713,"Rathausstr. 35, 57537 Wissen",Rathausstr. 35,57537,Wissen,50.7816514,7.7359179
1921,"Jüdemerstraße 16, 54290 Trier",Jüdemerstraße 16,54290,Trier,49.7532504,6.635932
1923,,,,,,
2601,"Rheinstr. 22, 65185 Wiesbaden",Rheinstr. 22,65185,Wiesbaden,50.0776155,8.24312
1314,,,,,,
2000,"Am Neuen Markt 14, 28199 Bremen",Am Neuen Markt 14,28199,Bremen,53.072611800000004,8.799448520944795
1924,"Burggraben 46, 26506 Norden",Burggraben 46,26506,Norden,53.5927966,7.20492295
2590,,,,,,
2516,,,,,,
2226,"Echternstraße 97, 32657 Lemgo",Echternstraße 97,32657,Lemgo,52.02915265,8.898793403063353
1270,"Alte Hattinger Str. 19, 44789 Bochum",Alte Hattinger Str. 19,44789,Bochum,51.4738744,7.215157130316092
2517,,,,,,
2518,,,,,,
2519,,,,,,
1488,"Portastraße 73, 32457 Porta Westfalica",Portastraße 73,32457,Porta Westfalica,52.256556,8.9094131
2520,"Bahnhofstraße 8, 94032 Passau",Bahnhofstraße 8,94032,Passau,48.5742231,13.4561885
2521,"Odeonstr.15/16, 30159 Hannover",Odeonstr.15/16,30159,Hannover,,
2522,,,,,,
1926,"Karlsplatz 7, 47798 Krefeld",Karlsplatz 7,47798,Krefeld,51.330325,6.560146328004469
1927,"Markt 17, 21502 Geesthacht",Markt 17,21502,Geesthacht,53.43095065,10.375648740613522
1927,"Manhagener Allee 14, 22926 Ahrensburg",Manhagener Allee 14,22926,Ahrensburg,53.6716298,10.2406677
2523,"Rosa-Luxemburg-Platz 2, 04860 Torgau",Rosa-Luxemburg-Platz 2,04860,Torgau,51.5605371,13.00328879027856
2523,"Altmarkt 27, 04758 Oschatz",Altmarkt 27,04758,Oschatz,51.2985267,13.10924531565947
2523,"Roßplatz 6, 04509 Delitzsch",Roßplatz 6,04509,Delitzsch,51.5236298,12.3366414
1492,"Am Kalvarienberg 6, 92533 Wernberg-Köblitz",Am Kalvarienberg 6,92533,Wernberg-Köblitz,49.5432013,12.1611797
1492,"Parkstraße 33, 93413 Cham",Parkstraße 33,93413,Cham,49.225166900000005,12.669212750988326
1928,,,,,,
2227,,,,,,
2524,"Bismarckstraße 18-20, 27232 Sulingen",Bismarckstraße 18-20,27232,Sulingen,52.6845829,8.8115111
1929,,,,,,
2525,"Elberfelder Straße 57, 58095 Hagen",Elberfelder Straße 57,58095,Hagen,51.35878685,7.467769887769906
2526,"Hindenburgstr. 16, 86609 Donauwörth",Hindenburgstr. 16,86609,Donauwörth,48.7169057,10.779235277756722
2230,,,,,,
1932,"Bergstraße 60, 35578 Wetzlar",Bergstraße 60,35578,Wetzlar,50.5524481,8.511848438274335
2527,,,,,,
2528,"Magdeburger Straße 19, 39387 Oschersleben (Bode)",Magdeburger Straße 19,39387,Oschersleben (Bode),52.02757045,11.229330130251865
2528,"Kapellenstraße 38, 39288 Burg",Kapellenstraße 38,39288,Burg,52.269042,11.8603904
2231,,,,,,
2232,"Schifferstraße 22, 27568 Bremerhaven",Schifferstraße 22,27568,Bremerhaven,53.546858099999994,8.573946114161636
1097,"Andreasstraße 3, 99084 Erfurt",Andreasstraße 3,99084,Erfurt,50.9825293,11.0210175
1097,"Graben 11, 99423 Weimar",Graben 11,99423,Weimar,50.982436050000004,11.326816706662996
2529,"Mozartstraße 24a, 27474 Cuxhaven",Mozartstraße 24a,27474,Cuxhaven,53.86808915,8.692318350000003
2234,"Haldenstraße 76, 45881 Gelsenkirchen",Haldenstraße 76,45881,Gelsenkirchen,51.5191226,7.067880658693368
1706,,,,,,
1602,"Schillerstraße 6a, 66606 St. Wendel",Schillerstraße 6a,66606,St. Wendel,49.4653635,7.1689816
1602,"Wilhelm-Heinrich-Straße 39, 66564 Ottweiler",Wilhelm-Heinrich-Straße 39,66564,Ottweiler,49.4013996,7.163725104419645
2530,,,,,,
2531,"Alleestraße 9, 14469 Potsdam",Alleestraße 9,14469,Potsdam,52.4096808,13.0610125
2235,,,,,,
2532,"Maxstr. 65, 67059 Ludwigshafen",Maxstr. 65,67059,Ludwigshafen,49.483583,8.4423257
2237,"Hauptstr. 18, 79761 Waldshut-Tiengen",Hauptstr. 18,79761,Waldshut-Tiengen,47.6342758,8.2745695
2238,"Ilzweg 1, 82140 Olching",Ilzweg 1,82140,Olching,48.210979550000005,11.333736355158921
2533,"Bahnhofstraße 10, 27749 Delmenhorst",Bahnhofstraße 10,27749,Delmenhorst,53.0511031,8.6298613
2534,,,,,,
2535,,,,,,
2241,"Postfach 100 123, 35331 Giessen",Postfach 100 123,35331,Giessen,,
1936,,,,,,
2536,"Bahnhofstraße 9, 48143 Münster",Bahnhofstraße 9,48143,Münster,51.958027099999995,7.635117629916224
1500,"Paulusstr. 45, 45657 Recklinghausen",Paulusstr. 45,45657,Recklinghausen,51.61021255,7.191444388387897
1704,"Mindener Straße 5, 32049 Herford",Mindener Straße 5,32049,Herford,52.118929,8.678011
1938,,,,,,
1501,,,,,,
2243,"Bawinkeler Str. 3, 49838 Langen",Bawinkeler Str. 3,49838,Langen,52.5409283,7.4658523
2243,"Osnabrücker Str. 38, 49170 Hagen",Osnabrücker Str. 38,49170,Hagen,52.1973659,7.9818221
2538,,,,,,
1584,"Bischofstraße 21, 53879 Euskirchen",Bischofstraße 21,53879,Euskirchen,50.66061405,6.78483723992572
2539,"Werkstr. 24, 71384 Weinstadt",Werkstr. 24,71384,Weinstadt,48.815536050000006,9.375082859554116
2244,"Kirchstraße 56, 77966 Kappel-Grafenhausen",Kirchstraße 56,77966,Kappel-Grafenhausen,48.2850395,7.7683734
2540,"Sigismundstraße 10, 78462 Konstanz",Sigismundstraße 10,78462,Konstanz,47.65921685,9.175312378360154
2541,,,,,,
2542,"Westliche Karl-Friedrich-Str. 70, 75172 Pforzheim",Westliche Karl-Friedrich-Str. 70,75172,Pforzheim,48.8919231,8.697973
2245,"Bismarckstr. 150, 26382 Wilhelmshaven",Bismarckstr. 150,26382,Wilhelmshaven,53.5282022,8.1127121
1333,"Luitpoldstr. 55, 96052 Bamberg",Luitpoldstr. 55,96052,Bamberg,49.90055,10.897718945786318
2246,"Waldemar-Klein-Platz 1, 63071 Offenbach",Waldemar-Klein-Platz 1,63071,Offenbach,50.09466755,8.798641045087336
2246,"Stehnweg 2, 63500 Seligenstadt",Stehnweg 2,63500,Seligenstadt,50.05315115,8.949884381151687
1502,"Leitergasse 4, 06108 Halle (Saale)",Leitergasse 4,06108,Halle (Saale),51.4888038,11.9655176
1680,"Weißenburgstraße 29, 70180 Stuttgart",Weißenburgstraße 29,70180,Stuttgart,48.7682908,9.178418805450049
2543,"Mülheimer Straße 7a, 51375 Leverkusen",Mülheimer Straße 7a,51375,Leverkusen,51.0314238,7.047136044938844
1940,,,,,,
1210,"Wüllener Str. 11, 48683 Ahaus",Wüllener Str. 11,48683,Ahaus,52.0758402,7.004723
2544,,,,,,
2250,"Stockholmer Platz 1, 70173 Stuttgart",Stockholmer Platz 1,70173,Stuttgart,48.7898741,9.1840494
2545,,,,,,
2251,,,,,,
1943,"Fleestedter Ring 3, 21217 Seevetal",Fleestedter Ring 3,21217,Seevetal,53.4097865,9.9899383
2252,"Münchner Straße 10, 82256 Fürstenfeldbruck",Münchner Straße 10,82256,Fürstenfeldbruck,48.1760362,11.2585677
1944,,,,,,
2253,"Kirschgartenstraße 13a,, 65719 Hofheim",Kirschgartenstraße 13a,65719,Hofheim,50.08560115,8.446491443197615
2547,,,,,,
1945,"Schneckestraße 6, 81737 München",Schneckestraße 6,81737,München,48.09416015,11.628976873064854
1946,"Castellstraße 1, 49808 Lingen",Castellstraße 1,49808,Lingen,52.5221119,7.3183651
1946,"Kolpingstraße 5, 49716 Meppen",Kolpingstraße 5,49716,Meppen,52.695439199999996,7.296989226485939
1946,"Bahnhofstr. 21a, 48529 Nordhorn",Bahnhofstr. 21a,48529,Nordhorn,52.4336012,7.0692829
2548,,,,,,
2255,"Medusastraße 16, 24143 Kiel",Medusastraße 16,24143,Kiel,54.3103193,10.1481799
1949,"Hohenzollernstraße 18, 67433 Neustadt an der Weinstraße",Hohenzollernstraße 18,67433,Neustadt an der Weinstraße,49.352656100000004,8.14190275
2549,,,,,,
1341,"Burgallee 5, 74653 Künzelsau",Burgallee 5,74653,Künzelsau,49.2690657,9.7756831
2550,"Rosa-Luxemburg-Straße 19/21, 04103 Leipzig",Rosa-Luxemburg-Straße 19/21,04103,Leipzig,,
1632,,,,,,
2551,,,,,,
2552,"Johannisstraße 7, 99817 Eisenach",Johannisstraße 7,99817,Eisenach,50.974567199999996,10.324819030343509
2552,"Bastmarkt 29, 99974 Mühlhausen",Bastmarkt 29,99974,Mühlhausen,51.2083683,10.4504603
2552,"Steinweg 26, 36433 Bad Salzungen",Steinweg 26,36433,Bad Salzungen,50.8137005,10.2373767
2553,"Luisenstraße 6, 79539 Lörrach",Luisenstraße 6,79539,Lörrach,47.615788949999995,7.662782914325359
2256,"Zionskirchstraße 3, 10119 Berlin",Zionskirchstraße 3,10119,Berlin,52.5339303,13.4057445
2257,"Wallstraße 16, 40213 Düsseldorf",Wallstraße 16,40213,Düsseldorf,51.2247633,6.77452
1597,,,,,,
2259,"Kirchstr. 15, 88250 Weingarten",Kirchstr. 15,88250,Weingarten,47.8086676,9.6423912
813,,,,,,
1536,"Domstraße 87, 63067 Offenbach",Domstraße 87,63067,Offenbach,50.1069865,8.7523873
1536,"Frankfurter Straße 53, 63218 Dietzenbach",Frankfurter Straße 53,63218,Dietzenbach,50.01333045,8.775007390203914
2554,"Moltkestraße 52, 12203 Berlin",Moltkestraße 52,12203,Berlin,52.4471923,13.3066353
2555,,,,,,
2515,"August-Bebel-Str. 33, 01219 Dresden",August-Bebel-Str. 33,01219,Dresden,51.0283139,13.7587887
2262,,,,,,
1954,,,,,,
2263,"Am Stadion 18-24, 51465 Bergisch Gladbach",Am Stadion 18-24,51465,Bergisch Gladbach,50.9941824,7.1149851
2556,"Kirchstraße 22/24, 37235 Hessisch Lichtenau",Kirchstraße 22/24,37235,Hessisch Lichtenau,,
2556,"Marktplatz 12, 36199 Rotenburg",Marktplatz 12,36199,Rotenburg,50.99431815,9.726565899999997
2264,"Dortustr. 11, 14467 Potsdam",Dortustr. 11,14467,Potsdam,52.4010478,13.0534742
2557,,,,,,
2265,,,,,,
1955,"Stadttorstr. 5, 44532 Lünen,",Stadttorstr. 5 44532 Lünen,44532,"Lünen,",51.6137255,7.5256032
1955,"Westhofenstr. 1, 59065 Hamm",Westhofenstr. 1,59065,Hamm,51.6795793,7.8159668
2266,,,,,,
1596,"Dieselstraße 1, 87437 Kempten",Dieselstraße 1,87437,Kempten,47.7471013,10.3208049
2267,,,,,,
1271,"Brühler Straße 4, 99084 Erfurt",Brühler Straße 4,99084,Erfurt,50.97385105,11.018345340463716
1271,"Erfurter Straße 12, 99423 Weimar",Erfurter Straße 12,99423,Weimar,50.9801615,11.321726396952362
1956,"Bahnstraße 31, 45468 Mülheim an der Ruhr",Bahnstraße 31,45468,Mülheim an der Ruhr,51.430120900000006,6.8847158845186005
2558,"Innere Schneeberger Str. 16, 08056 Zwickau",Innere Schneeberger Str. 16,08056,Zwickau,50.7159489,12.4967133
1757,"Sedanstr. 11, 42275 Wuppertal",Sedanstr. 11,42275,Wuppertal,51.272003999999995,7.195679231371232
2269,"Gabelsbergerstraße 15, 45879 Gelsenkirchen",Gabelsbergerstraße 15,45879,Gelsenkirchen,51.513796049999996,7.096401985263377
2269,"Goldbergstraße 64, 45894 Gelsenkirchen",Goldbergstraße 64,45894,Gelsenkirchen,51.578890400000006,7.0620171688229085
1510,"Stadtgrabenstr. 5, 71032 Böblingen",Stadtgrabenstr. 5,71032,Böblingen,48.685910750000005,9.010166508379571
1957,"Hirschenstr. 24, 90762 Fürth",Hirschenstr. 24,90762,Fürth,49.4740709,10.986204917561984
2559,Friesenstr. 58 26789 Leer,,26789,Leer,53.4614162,7.4550739
2560,,,,,,
2015,"Stengelstraße 5, 66117 Saarbrücken",Stengelstraße 5,66117,Saarbrücken,49.2333026,6.98919865713372
2015,"Kirchenstraße 7, 66424 Homburg",Kirchenstraße 7,66424,Homburg,49.3209043,7.339480846106557
2015,"De-Lenoncourt-Straße 13, 66763 Dillingen",De-Lenoncourt-Straße 13,66763,Dillingen,49.352033,6.7249686
2561,,,,,,
2270,"Pleicherkirchplatz 15, 97070 Würzburg",Pleicherkirchplatz 15,97070,Würzburg,49.79759145,9.92816298502695
2562,,,,,,
2271,"Ernestinerstr. 16, 98617 Meiningen",Ernestinerstr. 16,98617,Meiningen,50.56883605,10.41368615674636
1958,"Heilig-Kreuz-Straße 24, 86152 Augsburg",Heilig-Kreuz-Straße 24,86152,Augsburg,48.372322049999994,10.891311299878975
1512,"Mühlstr. 44, 67659 Kaiserslautern",Mühlstr. 44,67659,Kaiserslautern,49.44600615,7.7625390254291435
1960,,,,,,
2272,,,,,,
2286,"Georgstraße 28, 31582 Nienburg",Georgstraße 28,31582,Nienburg,52.6388873,9.2085177
2286,"Obernstraße 18, 31655 Stadthagen",Obernstraße 18,31655,Stadthagen,52.3220454,9.2050873
1964,"Schwartzstraße 52, 46049 Oberhausen",Schwartzstraße 52,46049,Oberhausen,51.4735319,6.8570443
1964,"Bahnhofsplatz 5, 46535 Dinslaken",Bahnhofsplatz 5,46535,Dinslaken,51.5670437,6.7362058
1725,,,,,,
1570,"Karlstr. 17, 48282 Emsdetten",Karlstr. 17,48282,Emsdetten,52.17488975,7.525496293383968
1570,"Oststr. 48, 59065 Hamm",Oststr. 48,59065,Hamm,51.682539399999996,7.8237780163975765
2563,,,,,,
2594,"Lisdorfer Straße 9, 66740 Saarlouis",Lisdorfer Straße 9,66740,Saarlouis,49.3127686,6.754493003106618
2594,"Trierer Straße 21, 66663 Merzig",Trierer Straße 21,66663,Merzig,49.44394655000001,6.6364069057668305
2273,,,,,,
1723,"Paradeplatz 10, 24768 Rendsburg",Paradeplatz 10,24768,Rendsburg,54.3004369,9.663230549710713
2564,"Hanauer Straße 13 1/2, 63755 Alzenau",Hanauer Straße 13 1/2,63755,Alzenau,,
2565,,,,,,
1610,,,,,,
2566,"Richard-Wagner-Straße 4, 93055 Regensburg",Richard-Wagner-Straße 4,93055,Regensburg,49.01501365,12.107926448259253
2567,,,,,,
861402,,,,,,
2568,,,,,,
2569,"Bahnhofstraße 4, 03238 Finsterwalde",Bahnhofstraße 4,03238,Finsterwalde,51.63627765,13.71039931274046
1756,,,,,,
1180,"Ernst-Thälmann-Str. 22, 09366 Stollberg",Ernst-Thälmann-Str. 22,09366,Stollberg,50.7094865,12.7812104
1968,,,,,,
2276,"Wilhelmstraße 55, 57518 Betzdorf",Wilhelmstraße 55,57518,Betzdorf,50.791706,7.8686999
2570,"Hauptstraße 22, 82319 Starnberg",Hauptstraße 22,82319,Starnberg,47.9972699,11.339406
2570,"Hinterer Anger 298, 86899 Landsberg am Lech",Hinterer Anger 298,86899,Landsberg am Lech,48.0513633,10.877349473151124
2570,"Eugen-Papst-Str. 4, 82110 Germering",Eugen-Papst-Str. 4,82110,Germering,48.1319831,11.3660286
2571,"Sankt-Florian-Straße 2, 64521 Groß-Gerau",Sankt-Florian-Straße 2,64521,Groß-Gerau,49.92899295,8.485585684304594
2277,,,,,,
2293,"Hauptstraße 344, 55743 Idar-Oberstein",Hauptstraße 344,55743,Idar-Oberstein,49.7033863,7.3201427
2293,"Beinde 50, 55543 Bad Kreuznach",Beinde 50,55543,Bad Kreuznach,49.8444848,7.8601444
1971,"Karl-Götz-Str. 17, 97424 Schweinfurt",Karl-Götz-Str. 17,97424,Schweinfurt,50.0562552,10.1957371
2572,"Franziskanerstraße 14, 81669 München",Franziskanerstraße 14,81669,München,48.1267725,11.5919659
2573,"Bahnhofstraße 124, 78532 Tuttlingen",Bahnhofstraße 124,78532,Tuttlingen,47.9813324,8.801508516786516
2573,"Bahnhofstraße 1, 78628 Rottweil",Bahnhofstraße 1,78628,Rottweil,48.1655107,8.630327434615385
1690,,,,,,
2574,,,,,,
2575,"Hauptstr. 23, 54634 Bitburg",Hauptstr. 23,54634,Bitburg,49.9742591,6.6381294651929235
2575,"Burgstr. 10, 54516 Wittlich",Burgstr. 10,54516,Wittlich,49.9045292,6.838607699581178
2278,"Linzer Str. 3, 53604 Bad Honnef",Linzer Str. 3,53604,Bad Honnef,50.6434029,7.228786811421159
1973,"Osterstraße 39A, 31134 Hildesheim,",Osterstraße 39A 31134 Hildesheim,31134,"Hildesheim,",52.1545764,9.9552048
1973,"Paulistraße 6, 31061 Alfeld",Paulistraße 6,31061,Alfeld,51.9848506,9.8251109
2279,,,,,,
1974,,,,,,
1130,"Am Stadtgraben 21, 72070 Tübingen",Am Stadtgraben 21,72070,Tübingen,48.52291385,9.055641082239264
2280,,,,,,
2576,"Goethestrasse 16, 40822 Mettmann",Goethestrasse 16,40822,Mettmann,51.25208745,6.97275215
1975,,,,,,
2281,"Kurt-Schumacher-Str. 30-32, 60313 Frankfurt",Kurt-Schumacher-Str. 30-32,60313,Frankfurt,50.1140771,8.6881325
2144,,,,,,
1135,"Hirsenstraße 13, 65329 Hohenstein",Hirsenstraße 13,65329,Hohenstein,50.2085127,8.08898180445351
1135,"Liebigstraße 12, 65307 Bad Schwalbach",Liebigstraße 12,65307,Bad Schwalbach,50.14699195,8.083656112954042
1519,"Wahnbachtalstraße 8, 53721 Siegburg",Wahnbachtalstraße 8,53721,Siegburg,50.78777505,7.222478596467639
2577,"Wilhelmstraße 18, 91413 Neustadt a. d. Aisch",Wilhelmstraße 18,91413,Neustadt a. d. Aisch,49.579252249999996,10.606708490740893
2578,"Marktplatz 13, 92421 Schwandorf",Marktplatz 13,92421,Schwandorf,49.33079725,12.108499197760374
2283,,,,,,
2579,"Gymnasiumstraße 6, 76804 Landau",Gymnasiumstraße 6,76804,Landau,49.1977967,8.111555964502731
2580,"Allerheiligentor 2-4, 60311 Frankfurt am Main",Allerheiligentor 2-4,60311,Frankfurt am Main,50.1130815,8.693439172168297
2284,,,,,,
2581,,,,,,
2582,"Stadtseeallee 20, 39576 Stendal",Stadtseeallee 20,39576,Stendal,52.6036622,11.8488247
2582,"Ernst Thälmann Straße 12, 39638 Gardelegen",Ernst Thälmann Straße 12,39638,Gardelegen,52.5254567,11.392897286629928
2582,"Breite Str. 45, 29410 Salzwedel",Breite Str. 45,29410,Salzwedel,52.8556008,11.1548436
2583,"Neue Marktstraße 32, 31785 Hameln",Neue Marktstraße 32,31785,Hameln,52.10333715,9.360389767300218
2584,,,,,,
1980,,,,,,
1984,"Innere Bamberger Straße 3, 96215 Lichtenfels",Innere Bamberger Straße 3,96215,Lichtenfels,50.1456692,11.062885036973121
2585,"Binnengärtenstraße 9, 06749 Bitterfeld-Wolfen",Binnengärtenstraße 9,06749,Bitterfeld-Wolfen,51.62311895,12.326658970149829
2585,"Fritz-Brandt-Straße 14, 39261 Zerbst",Fritz-Brandt-Straße 14,39261,Zerbst,51.9862143,11.98980075
2285,"Poth 1, 58638 Iserlohn",Poth 1,58638,Iserlohn,51.3739701,7.6956487
1985,"Uckermark, Marktberg 33, 17291 Prenzlau",Uckermark Marktberg 33,17291,Prenzlau,,
1985,"Karl-Marx-Platz 4, 16225 Eberswalde",Karl-Marx-Platz 4,16225,Eberswalde,52.8333724,13.8120713
1990,"Markt 3, 64823 Groß-Umstadt",Markt 3,64823,Groß-Umstadt,49.86845925,8.928536500983796
1990,"Hauptstr. 2, 64711 Erbach",Hauptstr. 2,64711,Erbach,49.6576443,8.993310765922892
2586,,,,,,
2587,"Fischerfeldstraße 7-11, 60311 Frankfurt am Main",Fischerfeldstraße 7-11,60311,Frankfurt am Main,50.1103456,8.6910439
2588,"Doberaner Str. 6, 18057 Rostock",Doberaner Str. 6,18057,Rostock,54.0879291,12.12505497015194
